2026-052J               
1 68206U 26052J   26085.31097684  .00051065  21783-5  74976-3 0  9995
2 68206  97.3417 160.8937 0544808 340.2264  17.8525 14.67707443  1494
STARLINK-36986          
1 68207U 26053A   26085.25002315 -.02023397  00000+0 -94475-2 0  9996
2 68207  97.2812 320.2794 0001653 103.7368 215.3818 15.86187099  2671
STARLINK-37009          
1 68208U 26053B   26085.25002315 -.02007700  00000+0 -92677-2 0  9999
2 68208  97.2802 320.2800 0001594 112.0468 210.3097 15.86396283  2678
STARLINK-36948          
1 68209U 26053C   26085.25002315 -.02005400  00000+0 -91720-2 0  9993
2 68209  97.2801 320.2819 0001413  96.9229 228.7979 15.86583263  2569
STARLINK-37119          
1 68210U 26053D   26085.25002315 -.02002226  00000+0 -90800-2 0  9996
2 68210  97.2800 320.2831 0001404  99.1720 229.9798 15.86751074  2676
STARLINK-37120          
1 68211U 26053E   26085.25002315 -.02001718  00000+0 -90105-2 0  9990
2 68211  97.2795 320.2847 0001496 103.3289 229.3648 15.86899787  2656
STARLINK-37117          
1 68212U 26053F   26085.25002315 -.02003140  00000+0 -89487-2 0  9993
2 68212  97.2799 320.2867 0001688  98.2465 237.9551 15.87052930  2676
STARLINK-37116          
1 68213U 26053G   26085.25002315 -.01999805  00000+0 -88527-2 0  9999
2 68213  97.2792 320.2875 0001399 103.3053 236.1561 15.87236116  2671
STARLINK-35854          
1 68214U 26053H   26085.25002315 -.02002818  00000+0 -88033-2 0  9992
2 68214  97.2790 320.2891 0001354  97.4605 245.4942 15.87384797  2434
STARLINK-36272          
1 68215U 26053J   26085.25002315 -.01998121  00000+0 -87026-2 0  9994
2 68215  97.2788 320.2904 0001496  88.3912 257.8101 15.87560178  2561
STARLINK-37014          
1 68216U 26053K   26085.25002315 -.02005096  00000+0 -86745-2 0  9993
2 68216  97.2786 320.2919 0001523  99.3460 250.3552 15.87705619  2678
STARLINK-37011          
1 68217U 26053L   26085.25002315 -.01999251  00000+0 -85714-2 0  9993
2 68217  97.2786 320.2932 0001508 104.3764 248.5290 15.87878255  2676
STARLINK-37108          
1 68218U 26053M   26085.25002315 -.01981599  00000+0 -84024-2 0  9993
2 68218  97.2786 320.2945 0001537 106.0768 249.7559 15.88072434  2673
STARLINK-37106          
1 68219U 26053N   26085.25002315 -.01987595  00000+0 -83570-2 0  9991
2 68219  97.2786 320.2959 0001473  98.0365 260.9609 15.88251141  2676
STARLINK-37030          
1 68220U 26053P   26085.25002315 -.01942063  00000+0 -82347-2 0  9995
2 68220  97.2779 320.2984 0001446  95.8419 269.7993 15.88551047  2674
STARLINK-37012          
1 68221U 26053Q   26085.25002315 -.01934086  00000+0 -82570-2 0  9990
2 68221  97.2778 320.2970 0001514  97.9926 264.3006 15.88398920  2676
