[{"OBJECT_NAME":"2026-052J","OBJECT_ID":"2026-052J","EPOCH":"2026-03-26T07:27:48.398976","MEAN_MOTION":14.67707443,"ECCENTRICITY":0.05448081,"INCLINATION":97.3417,"RA_OF_ASC_NODE":160.8937,"ARG_OF_PERICENTER":340.2264,"MEAN_ANOMALY":17.8525,"EPHEMERIS_TYPE":0,"CLASSIFICATION_TYPE":"U","NORAD_CAT_ID":68206,"ELEMENT_SET_NO":999,"REV_AT_EPOCH":149,"BSTAR":0.00074976012,"MEAN_MOTION_DOT":0.00051065,"MEAN_MOTION_DDOT":2.178315e-6},{"OBJECT_NAME":"STARLINK-36986","OBJECT_ID":"2026-053A","EPOCH":"2026-03-26T06:00:02.000160","MEAN_MOTION":15.86187099,"ECCENTRICITY":0.00016533,"INCLINATION":97.2812,"RA_OF_ASC_NODE":320.2794,"ARG_OF_PERICENTER":103.7368,"MEAN_ANOMALY":215.3818,"EPHEMERIS_TYPE":0,"CLASSIFICATION_TYPE":"U","NORAD_CAT_ID":68207,"ELEMENT_SET_NO":999,"REV_AT_EPOCH":267,"BSTAR":-0.009447515,"MEAN_MOTION_DOT":-0.02023397,"MEAN_MOTION_DDOT":0},{"OBJECT_NAME":"STARLINK-37009","OBJECT_ID":"2026-053B","EPOCH":"2026-03-26T06:00:02.000160","MEAN_MOTION":15.86396283,"ECCENTRICITY":0.00015941,"INCLINATION":97.2802,"RA_OF_ASC_NODE":320.28,"ARG_OF_PERICENTER":112.0468,"MEAN_ANOMALY":210.3097,"EPHEMERIS_TYPE":0,"CLASSIFICATION_TYPE":"U","NORAD_CAT_ID":68208,"ELEMENT_SET_NO":999,"REV_AT_EPOCH":267,"BSTAR":-0.0092677225,"MEAN_MOTION_DOT":-0.020077,"MEAN_MOTION_DDOT":0},{"OBJECT_NAME":"STARLINK-36948","OBJECT_ID":"2026-053C","EPOCH":"2026-03-26T06:00:02.000160","MEAN_MOTION":15.86583263,"ECCENTRICITY":0.00014138,"INCLINATION":97.2801,"RA_OF_ASC_NODE":320.2819,"ARG_OF_PERICENTER":96.9229,"MEAN_ANOMALY":228.7979,"EPHEMERIS_TYPE":0,"CLASSIFICATION_TYPE":"U","NORAD_CAT_ID":68209,"ELEMENT_SET_NO":999,"REV_AT_EPOCH":256,"BSTAR":-0.0091719606,"MEAN_MOTION_DOT":-0.020054,"MEAN_MOTION_DDOT":0},{"OBJECT_NAME":"STARLINK-37119","OBJECT_ID":"2026-053D","EPOCH":"2026-03-26T06:00:02.000160","MEAN_MOTION":15.86751074,"ECCENTRICITY":0.00014049,"INCLINATION":97.28,"RA_OF_ASC_NODE":320.2831,"ARG_OF_PERICENTER":99.172,"MEAN_ANOMALY":229.9798,"EPHEMERIS_TYPE":0,"CLASSIFICATION_TYPE":"U","NORAD_CAT_ID":68210,"ELEMENT_SET_NO":999,"REV_AT_EPOCH":267,"BSTAR":-0.0090799672,"MEAN_MOTION_DOT":-0.02002226,"MEAN_MOTION_DDOT":0},{"OBJECT_NAME":"STARLINK-37120","OBJECT_ID":"2026-053E","EPOCH":"2026-03-26T06:00:02.000160","MEAN_MOTION":15.86899787,"ECCENTRICITY":0.00014963,"INCLINATION":97.2795,"RA_OF_ASC_NODE":320.2847,"ARG_OF_PERICENTER":103.3289,"MEAN_ANOMALY":229.3648,"EPHEMERIS_TYPE":0,"CLASSIFICATION_TYPE":"U","NORAD_CAT_ID":68211,"ELEMENT_SET_NO":999,"REV_AT_EPOCH":265,"BSTAR":-0.0090104572,"MEAN_MOTION_DOT":-0.02001718,"MEAN_MOTION_DDOT":0},{"OBJECT_NAME":"STARLINK-37117","OBJECT_ID":"2026-053F","EPOCH":"2026-03-26T06:00:02.000160","MEAN_MOTION":15.8705293,"ECCENTRICITY":0.00016885,"INCLINATION":97.2799,"RA_OF_ASC_NODE":320.2867,"ARG_OF_PERICENTER":98.2465,"MEAN_ANOMALY":237.9551,"EPHEMERIS_TYPE":0,"CLASSIFICATION_TYPE":"U","NORAD_CAT_ID":68212,"ELEMENT_SET_NO":999,"REV_AT_EPOCH":267,"BSTAR":-0.008948734,"MEAN_MOTION_DOT":-0.0200314,"MEAN_MOTION_DDOT":0},{"OBJECT_NAME":"STARLINK-37116","OBJECT_ID":"2026-053G","EPOCH":"2026-03-26T06:00:02.000160","MEAN_MOTION":15.87236116,"ECCENTRICITY":0.00013998,"INCLINATION":97.2792,"RA_OF_ASC_NODE":320.2875,"ARG_OF_PERICENTER":103.3053,"MEAN_ANOMALY":236.1561,"EPHEMERIS_TYPE":0,"CLASSIFICATION_TYPE":"U","NORAD_CAT_ID":68213,"ELEMENT_SET_NO":999,"REV_AT_EPOCH":267,"BSTAR":-0.0088527353,"MEAN_MOTION_DOT":-0.01999805,"MEAN_MOTION_DDOT":0},{"OBJECT_NAME":"STARLINK-35854","OBJECT_ID":"2026-053H","EPOCH":"2026-03-26T06:00:02.000160","MEAN_MOTION":15.87384797,"ECCENTRICITY":0.00013545,"INCLINATION":97.279,"RA_OF_ASC_NODE":320.2891,"ARG_OF_PERICENTER":97.4605,"MEAN_ANOMALY":245.4942,"EPHEMERIS_TYPE":0,"CLASSIFICATION_TYPE":"U","NORAD_CAT_ID":68214,"ELEMENT_SET_NO":999,"REV_AT_EPOCH":243,"BSTAR":-0.0088032888,"MEAN_MOTION_DOT":-0.02002818,"MEAN_MOTION_DDOT":0},{"OBJECT_NAME":"STARLINK-36272","OBJECT_ID":"2026-053J","EPOCH":"2026-03-26T06:00:02.000160","MEAN_MOTION":15.87560178,"ECCENTRICITY":0.00014963,"INCLINATION":97.2788,"RA_OF_ASC_NODE":320.2904,"ARG_OF_PERICENTER":88.3912,"MEAN_ANOMALY":257.8101,"EPHEMERIS_TYPE":0,"CLASSIFICATION_TYPE":"U","NORAD_CAT_ID":68215,"ELEMENT_SET_NO":999,"REV_AT_EPOCH":256,"BSTAR":-0.0087025686,"MEAN_MOTION_DOT":-0.01998121,"MEAN_MOTION_DDOT":0},{"OBJECT_NAME":"STARLINK-37014","OBJECT_ID":"2026-053K","EPOCH":"2026-03-26T06:00:02.000160","MEAN_MOTION":15.87705619,"ECCENTRICITY":0.00015238,"INCLINATION":97.2786,"RA_OF_ASC_NODE":320.2919,"ARG_OF_PERICENTER":99.346,"MEAN_ANOMALY":250.3552,"EPHEMERIS_TYPE":0,"CLASSIFICATION_TYPE":"U","NORAD_CAT_ID":68216,"ELEMENT_SET_NO":999,"REV_AT_EPOCH":267,"BSTAR":-0.0086744733,"MEAN_MOTION_DOT":-0.02005096,"MEAN_MOTION_DDOT":0},{"OBJECT_NAME":"STARLINK-37011","OBJECT_ID":"2026-053L","EPOCH":"2026-03-26T06:00:02.000160","MEAN_MOTION":15.87878255,"ECCENTRICITY":0.0001508,"INCLINATION":97.2786,"RA_OF_ASC_NODE":320.2932,"ARG_OF_PERICENTER":104.3764,"MEAN_ANOMALY":248.529,"EPHEMERIS_TYPE":0,"CLASSIFICATION_TYPE":"U","NORAD_CAT_ID":68217,"ELEMENT_SET_NO":999,"REV_AT_EPOCH":267,"BSTAR":-0.0085714042,"MEAN_MOTION_DOT":-0.01999251,"MEAN_MOTION_DDOT":0},{"OBJECT_NAME":"STARLINK-37108","OBJECT_ID":"2026-053M","EPOCH":"2026-03-26T06:00:02.000160","MEAN_MOTION":15.88072434,"ECCENTRICITY":0.00015372,"INCLINATION":97.2786,"RA_OF_ASC_NODE":320.2945,"ARG_OF_PERICENTER":106.0768,"MEAN_ANOMALY":249.7559,"EPHEMERIS_TYPE":0,"CLASSIFICATION_TYPE":"U","NORAD_CAT_ID":68218,"ELEMENT_SET_NO":999,"REV_AT_EPOCH":267,"BSTAR":-0.008402365,"MEAN_MOTION_DOT":-0.01981599,"MEAN_MOTION_DDOT":0},{"OBJECT_NAME":"STARLINK-37106","OBJECT_ID":"2026-053N","EPOCH":"2026-03-26T06:00:02.000160","MEAN_MOTION":15.88251141,"ECCENTRICITY":0.0001473,"INCLINATION":97.2786,"RA_OF_ASC_NODE":320.2959,"ARG_OF_PERICENTER":98.0365,"MEAN_ANOMALY":260.9609,"EPHEMERIS_TYPE":0,"CLASSIFICATION_TYPE":"U","NORAD_CAT_ID":68219,"ELEMENT_SET_NO":999,"REV_AT_EPOCH":267,"BSTAR":-0.0083569736,"MEAN_MOTION_DOT":-0.01987595,"MEAN_MOTION_DDOT":0},{"OBJECT_NAME":"STARLINK-37030","OBJECT_ID":"2026-053P","EPOCH":"2026-03-26T06:00:02.000160","MEAN_MOTION":15.88551047,"ECCENTRICITY":0.00014467,"INCLINATION":97.2779,"RA_OF_ASC_NODE":320.2984,"ARG_OF_PERICENTER":95.8419,"MEAN_ANOMALY":269.7993,"EPHEMERIS_TYPE":0,"CLASSIFICATION_TYPE":"U","NORAD_CAT_ID":68220,"ELEMENT_SET_NO":999,"REV_AT_EPOCH":267,"BSTAR":-0.0082346662,"MEAN_MOTION_DOT":-0.01942063,"MEAN_MOTION_DDOT":0},{"OBJECT_NAME":"STARLINK-37012","OBJECT_ID":"2026-053Q","EPOCH":"2026-03-26T06:00:02.000160","MEAN_MOTION":15.8839892,"ECCENTRICITY":0.00015142,"INCLINATION":97.2778,"RA_OF_ASC_NODE":320.297,"ARG_OF_PERICENTER":97.9926,"MEAN_ANOMALY":264.3006,"EPHEMERIS_TYPE":0,"CLASSIFICATION_TYPE":"U","NORAD_CAT_ID":68221,"ELEMENT_SET_NO":999,"REV_AT_EPOCH":267,"BSTAR":-0.0082570324,"MEAN_MOTION_DOT":-0.01934086,"MEAN_MOTION_DDOT":0}]
